{"type":"FeatureCollection","features":[{"type":"Feature","properties":{"Nama":"Gedung Kuliah I","Jurusan":"Teknik Mesin S1, Mesin D3, Teknik Kimia S1, Bisnis Digiral S1","Fakultas":"Fakultas Teknologi Industri"},"geometry":{"coordinates":[[[112.63393298324684,-7.916409253622689],[112.63385382945972,-7.916540263218991],[112.63382779203062,-7.916526852790199],[112.63372051781874,-7.916696030480651],[112.63389444785042,-7.916805376998994],[112.63391111180641,-7.916781650870718],[112.6340454649445,-7.916865208101697],[112.63410795477563,-7.916752766885239],[112.63401317853118,-7.916685714768818],[112.63402671799423,-7.916659925491373],[112.63401005403966,-7.916598031216324],[112.6339819336149,-7.916580494504103],[112.63404858943602,-7.916470116353182],[112.63393298324684,-7.916409253622689]]],"type":"Polygon"},"id":0},{"type":"Feature","properties":{"Nama":"Gedung Kuliah II","Jurusan":"Teknik Industri S1, Teknik Industri S2","Fakultas":"Fakultas Teknologi Industri"},"geometry":{"coordinates":[[[112.63407438921803,-7.916171721571203],[112.63418381212682,-7.916244824918124],[112.6342773971532,-7.916081663923649],[112.63431288332083,-7.916102478181443],[112.63433083895598,-7.916073966722678],[112.63447313399888,-7.916154564448789],[112.63452767802988,-7.916068035765008],[112.63439411476958,-7.915987484805257],[112.63440873201154,-7.9159552963321005],[112.63424339496407,-7.9158506244979066],[112.63413297626715,-7.916021346279038],[112.63416512404149,-7.916038483532546],[112.63407438921803,-7.916171721571203]]],"type":"Polygon"},"id":1},{"type":"Feature","properties":{"Nama":"Gedung Kuliah III","Jurusan":"Teknik Elektro S1, Teknik Elektro S2, Teknik Informatika S1","Fakultas":"Fakultas Teknologi Industri"},"geometry":{"coordinates":[[[112.63459403064167,-7.916137143145605],[112.63473532436842,-7.916224792279408],[112.63470707831442,-7.916278048538615],[112.6347418821191,-7.9162952687668735],[112.63461968134169,-7.916502500461945],[112.63474360540465,-7.916576903222534],[112.63487189685162,-7.9163711717607725],[112.63489809637872,-7.916385311808767],[112.63501072605504,-7.916193017979722],[112.63482197993397,-7.916076705711546],[112.63480549637057,-7.9161024321415],[112.63466794081529,-7.916021789149781],[112.63459403064167,-7.916137143145605]]],"type":"Polygon"},"id":2},{"type":"Feature","properties":{"Nama":"Gedung Lab Industri","Jurusan":"Teknik Industri S1, Teknik Industri S2, Teknik Kimia S1, Bisnis Digital S1","Fakultas":"Fakultas Teknologi Industri"},"geometry":{"coordinates":[[[112.63396372665852,-7.917549267371157],[112.63406695969758,-7.917612332532741],[112.63414206855037,-7.91750085643784],[112.63435186719175,-7.917621785549272],[112.63442505732922,-7.917501807444154],[112.63449451053117,-7.917539991649079],[112.63458734257807,-7.917392232008936],[112.63420364590627,-7.917154699741047],[112.63396372665852,-7.917549267371157]]],"type":"Polygon"},"id":3},{"type":"Feature","properties":{"Nama":"Kantin FTI","Fakultas":"Fakultas Teknologi Industri"},"geometry":{"coordinates":[[[112.63370255147333,-7.9173504446867895],[112.6338753639302,-7.917457245402602],[112.63399271050957,-7.917268351068969],[112.63382252368996,-7.917163200702305],[112.63370255147333,-7.9173504446867895]]],"type":"Polygon"},"id":4},{"type":"Feature","properties":{"Nama":"Gedung Lab Mesin","Jurusan":"Teknik Mesin S1","Fakultas":"Fakultas Teknologi Industri"},"geometry":{"coordinates":[[[112.63364637332643,-7.917185630430495],[112.63372468852464,-7.91706340167832],[112.63359078096568,-7.91697923134015],[112.63361792113739,-7.916939747041269],[112.63374705709964,-7.917022742096805],[112.63381883339122,-7.916916467068276],[112.6334573284297,-7.916687411605253],[112.63334056255428,-7.91686390325998],[112.63340572383737,-7.91690303773693],[112.63334157202598,-7.9170031613304985],[112.63364637332643,-7.917185630430495]]],"type":"Polygon"},"id":5},{"type":"Feature","properties":{"Nama":"Gedung Lab Elektro","Jurusan":"Teknik Elektro S1, Teknik Elektro S2, Teknik Informatika S1, Teknik Listrik D3","Fakultas":"Fakultas Teknologi Industri"},"geometry":{"coordinates":[[[112.63495561844127,-7.9167556347767345],[112.63502148664617,-7.916787917636995],[112.63506029078331,-7.916730229021454],[112.63513153648273,-7.916771364003878],[112.63515617723306,-7.9167357806067855],[112.6351980612302,-7.9167566356850045],[112.63522116191683,-7.916729204222236],[112.63525840053506,-7.916754435328372],[112.6353007644775,-7.916682568341557],[112.63525337677004,-7.916647309815588],[112.6352924081512,-7.916580644041247],[112.63525542196874,-7.916566515571915],[112.63527599804422,-7.9165229052315595],[112.63511762659755,-7.916425181479681],[112.63509465212888,-7.916458164287789],[112.63505920601011,-7.916435883872964],[112.63502837981514,-7.916483995268038],[112.6349942465161,-7.916462540054567],[112.634937239507,-7.916554386802233],[112.63496826748889,-7.916572066101736],[112.63495375064008,-7.9165975971456675],[112.63498227920064,-7.916619177366144],[112.63496324318885,-7.916654635758363],[112.63500214808676,-7.916677266254609],[112.63495561844127,-7.9167556347767345]]],"type":"Polygon"},"id":6},{"type":"Feature","properties":{"Nama":"Kantor Satpam FTI","Fakultas":"Fakultas Teknologi Industri"},"geometry":{"coordinates":[[[112.63369279134315,-7.91604559996226],[112.63361749080354,-7.916175392195413],[112.63370332477808,-7.916225452171133],[112.63372072874989,-7.9162013563005615],[112.63376542385265,-7.9162236111255595],[112.63379260746228,-7.916184251865829],[112.63375198046259,-7.916158714881377],[112.63378562997286,-7.916100062882947],[112.63369279134315,-7.91604559996226]]],"type":"Polygon"},"id":7},{"type":"Feature","properties":{"Nama":"Lapangan Basket FTI","Fakultas":"Fakultas Teknologi Industri"},"geometry":{"coordinates":[[[112.63422612524283,-7.9165531271454626],[112.63434468943183,-7.916624794995471],[112.63448070085502,-7.916403510261944],[112.63436145094471,-7.916331411346576],[112.63422612524283,-7.9165531271454626]]],"type":"Polygon"},"id":8},{"type":"Feature","properties":{"Nama":"Rusunawa","Fakultas":"Fakultas Teknologi Industri"},"geometry":{"coordinates":[[[112.63550317822092,-7.91693742432183],[112.63582344855712,-7.917133005143185],[112.63591694396229,-7.916982568371452],[112.63560135433346,-7.916784197980263],[112.63550317822092,-7.91693742432183]]],"type":"Polygon"},"id":9},{"type":"Feature","properties":{"Nama":"PLTS","Fakultas":"Fakultas Teknologi Industri"},"geometry":{"coordinates":[[[112.63511102958466,-7.917395923848531],[112.63563328356628,-7.91774139177538],[112.63566600893716,-7.917690316434218],[112.63585295890914,-7.917804961641707],[112.63605157212186,-7.917508528201438],[112.63531261786841,-7.917081299383483],[112.63511102958466,-7.917395923848531]]],"type":"Polygon"},"id":10},{"type":"Feature","properties":{"Nama":"Pura Astawiyanaka","Fakultas":"Fakultas Teknologi Industri"},"geometry":{"coordinates":[[[112.63422148465895,-7.918211797920222],[112.63442680083739,-7.918180367489356],[112.63437860643683,-7.91784916306878],[112.63416916490388,-7.91787800045374],[112.63422148465895,-7.918211797920222]]],"type":"Polygon"},"id":11},{"type":"Feature","properties":{"Nama":"Posko HIMAKPA FTI","Fakultas":"Fakultas Teknologi Industri"},"geometry":{"coordinates":[[[112.634015653127,-7.918131137548059],[112.63410894980228,-7.9181210013070995],[112.63410998134981,-7.918047138444351],[112.63400843396562,-7.918052088548421],[112.634015653127,-7.918131137548059]]],"type":"Polygon"},"id":12},{"type":"Feature","properties":{"Nama":"Gereja Saint Thomas Aquinas","Fakultas":"Fakultas Teknologi Industri"},"geometry":{"coordinates":[[[112.63366539440426,-7.918077192997231],[112.63381315350819,-7.918167203941977],[112.63396329359159,-7.917914813347338],[112.63382247618273,-7.917832031502712],[112.63366539440426,-7.918077192997231]]],"type":"Polygon"},"id":13},{"type":"Feature","properties":{"Nama":"Gedung Lab Mesin D3","Jurusan":"Teknik Mesin S1, Teknik Mesin D3","Fakultas":"Fakultas Teknologi Industri"},"geometry":{"coordinates":[[[112.63311231981072,-7.917657901225709],[112.63346011903661,-7.917842127324008],[112.6335541302156,-7.917654759343051],[112.63332013528424,-7.9175277379891185],[112.63336368981584,-7.917446213817698],[112.6332620632765,-7.917388066080534],[112.63311231981072,-7.917657901225709]]],"type":"Polygon"},"id":14},{"type":"Feature","properties":{"Nama":"Masjid Al Kautsar","Fakultas":"Fakultas Teknologi Industri"},"geometry":{"coordinates":[[[112.63285742196615,-7.917297071426276],[112.63300101613657,-7.917352940540596],[112.63305948560566,-7.917212011651998],[112.63291795411169,-7.917157439056766],[112.63285742196615,-7.917297071426276]]],"type":"Polygon"},"id":15}]}